{
  "properties": {
    "path": "brands/amenity/prep_school",
    "preserveTags": ["^name"],
    "exclude": {"generic": ["^prep school$"]}
  },
  "items": [
    {
      "displayName": "C2 Education",
      "id": "c2education-6f378a",
      "locationSet": {"include": ["us"]},
      "tags": {
        "amenity": "prep_school",
        "brand": "C2 Education",
        "brand:wikidata": "Q5008097",
        "name": "C2 Education"
      }
    },
    {
      "displayName": "Huntington Learning Center",
      "id": "huntingtonlearningcenter-6f378a",
      "locationSet": {"include": ["us"]},
      "matchNames": ["huntington"],
      "tags": {
        "amenity": "prep_school",
        "brand": "Huntington Learning Center",
        "brand:wikidata": "Q5945399",
        "name": "Huntington Learning Center"
      }
    },
    {
      "displayName": "Kumon (International)",
      "id": "kumon-027246",
      "locationSet": {"include": ["001"]},
      "matchNames": [
        "kumon learning center",
        "kumon math and reading center"
      ],
      "matchTags": [
        "office/educational_institution"
      ],
      "tags": {
        "amenity": "prep_school",
        "brand": "Kumon",
        "brand:wikidata": "Q142054",
        "name": "Kumon"
      }
    },
    {
      "displayName": "KUMON (日本)",
      "id": "kumon-cae330",
      "locationSet": {"include": ["jp"]},
      "matchNames": ["くもん"],
      "tags": {
        "amenity": "prep_school",
        "brand": "KUMON",
        "brand:wikidata": "Q142054",
        "name": "KUMON",
        "name:ja": "公文",
        "name:ja-Hira": "くもん",
        "name:ja-Latn": "KUMON"
      }
    },
    {
      "displayName": "Mathnasium",
      "id": "mathnasium-57f7a3",
      "locationSet": {"include": ["ca", "us"]},
      "matchNames": [
        "mathnasium learning center"
      ],
      "matchTags": [
        "office/educational_institution"
      ],
      "tags": {
        "amenity": "prep_school",
        "brand": "Mathnasium",
        "brand:wikidata": "Q6787302",
        "name": "Mathnasium"
      }
    },
    {
      "displayName": "Russian School of Mathematics",
      "id": "russianschoolofmathematics-6f378a",
      "locationSet": {"include": ["us"]},
      "matchNames": [
        "rsm",
        "russian school of math"
      ],
      "tags": {
        "amenity": "prep_school",
        "brand": "Russian School of Mathematics",
        "brand:wikidata": "Q7382122",
        "name": "Russian School of Mathematics"
      }
    },
    {
      "displayName": "Schülerhilfe",
      "id": "schulerhilfe-089158",
      "locationSet": {"include": ["at", "de"]},
      "tags": {
        "amenity": "prep_school",
        "brand": "Schülerhilfe",
        "brand:wikidata": "Q2259702",
        "name": "Schülerhilfe"
      }
    },
    {
      "displayName": "Studienkreis",
      "id": "studienkreis-fce332",
      "locationSet": {
        "include": ["at", "ch", "de", "lu"]
      },
      "tags": {
        "amenity": "prep_school",
        "brand": "Studienkreis",
        "brand:wikidata": "Q2358555",
        "name": "Studienkreis"
      }
    },
    {
      "displayName": "Sylvan",
      "id": "sylvan-6f378a",
      "locationSet": {"include": ["us"]},
      "matchNames": ["sylvan learning"],
      "tags": {
        "alt_name": "Sylvan Learning Center",
        "amenity": "prep_school",
        "brand": "Sylvan",
        "brand:wikidata": "Q7660663",
        "name": "Sylvan"
      }
    },
    {
      "displayName": "栄光ゼミナール",
      "id": "eikohseminar-cae330",
      "locationSet": {"include": ["jp"]},
      "matchNames": ["eikoh"],
      "tags": {
        "amenity": "prep_school",
        "brand": "栄光ゼミナール",
        "brand:ja": "栄光ゼミナール",
        "brand:ja-Hira": "えいこうゼミナール",
        "brand:ja-Latn": "Eikō Zemināru",
        "brand:wikidata": "Q11535632",
        "name": "栄光ゼミナール",
        "name:en": "Eikoh Seminar",
        "name:ja": "栄光ゼミナール",
        "name:ja-Hira": "えいこうゼミナール",
        "name:ja-Latn": "Eikō Zemināru"
      }
    }
  ]
}
