{
  "properties": {
    "path": "brands/amenity/recycling",
    "exclude": {
      "generic": [
        "^(altglascontainer|bauhof|biotonne|glascontainer|häckselplatz|recyclinghof|wertstoffhof)$",
        "^d[ée]ch[èe]tt?erie$",
        "^recycling$",
        "^verre$",
        "^سطل زباله$"
      ]
    }
  },
  "items": [
    {
      "displayName": "BottleDrop Express",
      "id": "bottledropexpress-95a314",
      "locationSet": {
        "include": ["us-or.geojson"]
      },
      "note": "To be used for bag drop stations.",
      "tags": {
        "amenity": "recycling",
        "brand": "BottleDrop",
        "brand:wikidata": "Q107673127",
        "name": "BottleDrop Express",
        "operator": "Oregon Beverage Recycling Cooperative",
        "recycling_type": "centre",
        "recycling:cans": "yes",
        "recycling:glass_bottles": "yes",
        "recycling:plastic_bottles": "yes"
      }
    },
    {
      "displayName": "BottleDrop Redemption Center",
      "id": "bottledropredemptioncenter-95a314",
      "locationSet": {
        "include": ["us-or.geojson"]
      },
      "note": "To be used for standalone redemption centers (not inside supermarkets).",
      "tags": {
        "amenity": "recycling",
        "brand": "BottleDrop",
        "brand:wikidata": "Q107673127",
        "name": "BottleDrop Redemption Center",
        "operator": "Oregon Beverage Recycling Cooperative",
        "recycling_type": "centre",
        "recycling:cans": "yes",
        "recycling:glass_bottles": "yes",
        "recycling:plastic_bottles": "yes"
      }
    },
    {
      "displayName": "Deutsches Rotes Kreuz",
      "id": "deutschesroteskreuz-f6fab4",
      "locationSet": {"include": ["de"]},
      "matchNames": [
        "deutsches rotes kreuz e.v.",
        "drk",
        "rotes kreuz"
      ],
      "tags": {
        "amenity": "recycling",
        "brand": "Deutsches Rotes Kreuz",
        "brand:wikidata": "Q694104",
        "brand:wikipedia": "de:Deutsches Rotes Kreuz"
      }
    },
    {
      "displayName": "ecoATM",
      "id": "ecoatm-f8d7ba",
      "locationSet": {"include": ["us"]},
      "tags": {
        "amenity": "recycling",
        "brand": "ecoATM",
        "brand:wikidata": "Q107673127",
        "name": "ecoATM",
        "recycling_type": "vending_machine",
        "recycling:mobile_phones": "yes"
      }
    },
    {
      "displayName": "Ecocentro",
      "id": "ecocentro-247680",
      "locationSet": {"include": ["001"]},
      "tags": {
        "amenity": "recycling",
        "brand": "Ecocentro",
        "name": "Ecocentro"
      }
    },
    {
      "displayName": "Ecoilha Subterrânea",
      "id": "ecoilhasubterranea-247680",
      "locationSet": {"include": ["001"]},
      "tags": {
        "amenity": "recycling",
        "brand": "Ecoilha Subterrânea",
        "name": "Ecoilha Subterrânea"
      }
    },
    {
      "displayName": "Ecoponto",
      "id": "ecoponto-247680",
      "locationSet": {"include": ["001"]},
      "tags": {
        "amenity": "recycling",
        "brand": "Ecoponto",
        "name": "Ecoponto"
      }
    },
    {
      "displayName": "Ecopunto",
      "id": "ecopunto-247680",
      "locationSet": {"include": ["001"]},
      "tags": {
        "amenity": "recycling",
        "brand": "Ecopunto",
        "name": "Ecopunto"
      }
    },
    {
      "displayName": "Islamic Relief",
      "id": "islamicrelief-a9e339",
      "locationSet": {"include": ["gb"]},
      "tags": {
        "amenity": "recycling",
        "brand": "Islamic Relief",
        "brand:wikidata": "Q239714",
        "brand:wikipedia": "en:Islamic Relief",
        "name": "Islamic Relief",
        "operator": "Islamic Relief",
        "recycling_type": "container",
        "recycling:clothes": "yes",
        "recycling:shoes": "yes"
      }
    },
    {
      "displayName": "Isola Ecologica",
      "id": "isolaecologica-247680",
      "locationSet": {"include": ["001"]},
      "tags": {
        "amenity": "recycling",
        "brand": "Isola Ecologica",
        "name": "Isola Ecologica"
      }
    },
    {
      "displayName": "Oxfam",
      "id": "oxfam-a9e339",
      "locationSet": {"include": ["gb"]},
      "tags": {
        "amenity": "recycling",
        "brand": "Oxfam",
        "brand:wikidata": "Q267941",
        "brand:wikipedia": "en:Oxfam",
        "name": "Oxfam",
        "operator": "Oxfam",
        "recycling_type": "container",
        "recycling:clothes": "yes",
        "recycling:shoes": "yes"
      }
    },
    {
      "displayName": "Planet Aid",
      "id": "planetaid-f8d7ba",
      "locationSet": {"include": ["us"]},
      "tags": {
        "amenity": "recycling",
        "brand": "Planet Aid",
        "brand:wikidata": "Q7201055",
        "brand:wikipedia": "en:Planet Aid",
        "name": "Planet Aid",
        "recycling_type": "container",
        "recycling:clothes": "yes",
        "recycling:shoes": "yes"
      }
    },
    {
      "displayName": "Punto Limpio",
      "id": "puntolimpio-247680",
      "locationSet": {"include": ["001"]},
      "tags": {
        "amenity": "recycling",
        "brand": "Punto Limpio",
        "name": "Punto Limpio"
      }
    },
    {
      "displayName": "Ressourcerie",
      "id": "ressourcerie-247680",
      "locationSet": {"include": ["001"]},
      "tags": {
        "amenity": "recycling",
        "brand": "Ressourcerie",
        "name": "Ressourcerie"
      }
    },
    {
      "displayName": "Saint Vincent de Paul",
      "id": "saintvincentdepaul-f8d7ba",
      "locationSet": {"include": ["us"]},
      "matchNames": ["st vincent de paul"],
      "tags": {
        "amenity": "recycling",
        "brand": "Saint Vincent de Paul",
        "brand:wikidata": "Q66581837",
        "name": "Saint Vincent de Paul",
        "recycling:clothes": "yes",
        "recycling:shoes": "yes",
        "short_name": "SVdP"
      }
    },
    {
      "displayName": "Sběrný dvůr",
      "id": "sbernydvur-16d48f",
      "locationSet": {"include": ["cz"]},
      "tags": {
        "amenity": "recycling",
        "brand": "Sběrný dvůr",
        "name": "Sběrný dvůr"
      }
    },
    {
      "displayName": "The Salvation Army",
      "id": "thesalvationarmy-f8d7ba",
      "locationSet": {"include": ["us"]},
      "matchNames": ["salvation army"],
      "tags": {
        "amenity": "recycling",
        "brand": "The Salvation Army",
        "brand:wikidata": "Q188307",
        "brand:wikipedia": "en:The Salvation Army",
        "name": "The Salvation Army",
        "recycling:clothes": "yes"
      }
    },
    {
      "displayName": "TRAID",
      "id": "traid-a9e339",
      "locationSet": {"include": ["gb"]},
      "tags": {
        "amenity": "recycling",
        "brand": "TRAID",
        "brand:wikidata": "Q109717195",
        "name": "TRAID",
        "operator": "TRAID",
        "recycling_type": "container",
        "recycling:clothes": "yes",
        "recycling:shoes": "yes"
      }
    },
    {
      "displayName": "Лѣпта",
      "id": "b6327b-f85e9d",
      "locationSet": {"include": ["ru"]},
      "matchNames": ["лепта"],
      "tags": {
        "amenity": "recycling",
        "brand": "Лѣпта",
        "brand:wikidata": "Q110234180",
        "name": "Лѣпта",
        "operator": "Лѣпта",
        "recycling_type": "container",
        "recycling:clothes": "yes",
        "recycling:shoes": "yes"
      }
    },
    {
      "displayName": "Спасибо!",
      "id": "e4ddd4-f85e9d",
      "locationSet": {"include": ["ru"]},
      "tags": {
        "amenity": "recycling",
        "brand": "Спасибо!",
        "brand:wikidata": "Q110234301",
        "name": "Спасибо!",
        "operator": "Спасибо!",
        "recycling_type": "container",
        "recycling:books": "yes",
        "recycling:clothes": "yes",
        "recycling:shoes": "yes"
      }
    },
    {
      "displayName": "Экобокс",
      "id": "ecobox-f85e9d",
      "locationSet": {"include": ["ru"]},
      "tags": {
        "amenity": "recycling",
        "brand": "Экобокс",
        "brand:en": "ecobox",
        "brand:ru": "Экобокс",
        "name": "Экобокс"
      }
    }
  ]
}
