{
  "properties": {
    "path": "operators/amenity/marketplace",
    "exclude": {
      "generic": [
        "^community$",
        "^marketplace$",
        "^municipio$",
        "^public$"
      ]
    }
  },
  "items": [
    {
      "displayName": "Bauernmarkt München e.V.",
      "id": "bauernmarktmunchenev-e4ddee",
      "locationSet": {
        "include": ["de-by.geojson"]
      },
      "tags": {
        "amenity": "marketplace",
        "operator": "Bauernmarkt München e.V."
      }
    },
    {
      "displayName": "Coldiretti",
      "id": "coldiretti-55c742",
      "locationSet": {"include": ["it"]},
      "tags": {
        "amenity": "marketplace",
        "operator": "Coldiretti",
        "operator:wikidata": "Q3682549"
      }
    },
    {
      "displayName": "Event & Promotion Mannheim",
      "id": "eventandpromotionmannheim-19533a",
      "locationSet": {
        "include": ["de-bw.geojson"]
      },
      "tags": {
        "amenity": "marketplace",
        "operator": "Event & Promotion Mannheim"
      }
    },
    {
      "displayName": "Farm to City",
      "id": "farmtocity-edd60a",
      "locationSet": {"include": ["us"]},
      "tags": {
        "amenity": "marketplace",
        "operator": "Farm to City"
      }
    },
    {
      "displayName": "Feria Ruta 6 La Familia",
      "id": "feriaruta6lafamilia-07dc7f",
      "locationSet": {"include": ["ar"]},
      "tags": {
        "amenity": "marketplace",
        "operator": "Feria Ruta 6 La Familia"
      }
    },
    {
      "displayName": "GAMP",
      "id": "gamp-67b2c9",
      "locationSet": {"include": ["bo"]},
      "tags": {
        "amenity": "marketplace",
        "operator": "GAMP"
      }
    },
    {
      "displayName": "Grenoble Alpes Métropole",
      "id": "grenoblealpesmetropole-3c614b",
      "locationSet": {"include": ["fx"]},
      "tags": {
        "amenity": "marketplace",
        "operator": "Grenoble Alpes Métropole"
      }
    },
    {
      "displayName": "Großmarkt Rostock GmbH",
      "id": "grossmarktrostockgmbh-b3c127",
      "locationSet": {
        "include": ["de-mv.geojson"]
      },
      "tags": {
        "amenity": "marketplace",
        "operator": "Großmarkt Rostock GmbH"
      }
    },
    {
      "displayName": "Hackney Council",
      "id": "hackneycouncil-36ae31",
      "locationSet": {
        "include": ["gb-lon.geojson"]
      },
      "tags": {
        "amenity": "marketplace",
        "operator": "Hackney Council",
        "operator:type": "government",
        "operator:wikidata": "Q5637369"
      }
    },
    {
      "displayName": "London Farmers' Market",
      "id": "londonfarmersmarket-36ae31",
      "locationSet": {
        "include": ["gb-lon.geojson"]
      },
      "tags": {
        "amenity": "marketplace",
        "operator": "London Farmers' Market",
        "operator:wikidata": "Q6670360",
        "organic": "yes"
      }
    },
    {
      "displayName": "Merkezefendi Belediyesi",
      "id": "merkezefendibelediyesi-147c9c",
      "locationSet": {"include": ["tr"]},
      "tags": {
        "amenity": "marketplace",
        "operator": "Merkezefendi Belediyesi"
      }
    },
    {
      "displayName": "Prefeitura Municipal",
      "id": "prefeituramunicipal-f055ad",
      "locationSet": {"include": ["br"]},
      "tags": {
        "amenity": "marketplace",
        "operator": "Prefeitura Municipal"
      }
    },
    {
      "displayName": "Refugees",
      "id": "refugees-f4baf8",
      "locationSet": {"include": ["001"]},
      "tags": {
        "amenity": "marketplace",
        "operator": "Refugees"
      }
    },
    {
      "displayName": "The Food Trust",
      "id": "thefoodtrust-edd60a",
      "locationSet": {"include": ["us"]},
      "tags": {
        "amenity": "marketplace",
        "operator": "The Food Trust",
        "operator:wikidata": "Q7734690"
      }
    },
    {
      "displayName": "Zagrebački Holding - podružnica Tržnice Zagreb",
      "id": "zagrebackiholdingpodruznicatrznicezagreb-f2d9a8",
      "locationSet": {"include": ["hr"]},
      "tags": {
        "amenity": "marketplace",
        "operator": "Zagrebački Holding - podružnica Tržnice Zagreb",
        "operator:wikidata": "Q8064462"
      }
    }
  ]
}
